2024-092D               
1 59776U 24092D   26068.88372108  .00024443  00000+0  76511-3 0  9999
2 59776  97.6418 198.2302 0008340 141.9853 218.1979 15.33078357100518
STARLINK-34635          
1 64761U 25147G   26068.75174971  .00022343  00000+0  76430-3 0  9992
2 64761  53.1591 242.2950 0000685  72.7511 287.3564 15.30196292 38763
